start=new Date('2022-12-02T00:00:00.000Z').valueOf();
sats=[{"MEAN_ELEMENT_THEORY":"SGP4","SEMIMAJOR_AXIS":"6925.356","COUNTRY_CODE":"US","MEAN_MOTION_DDOT":"0.0000000000000","ELEMENT_SET_NO":"999","RCS_SIZE":"LARGE","TLE_LINE1":"1 44934U 20001W   22335.30764971 -.00000801  00000-0 -34881-4 0  9998","MEAN_MOTION":"15.06397468","MEAN_ANOMALY":"286.5909","OBJECT_TYPE":"PAYLOAD","OBJECT_ID":"2020-001W","ECCENTRICITY":"0.00015450","CENTER_NAME":"EARTH","APOAPSIS":"548.291","RA_OF_ASC_NODE":"288.4199","LAUNCH_DATE":"2020-01-07","GP_ID":"219263637","BSTAR":"-0.00003488100000","TIME_SYSTEM":"UTC","REF_FRAME":"TEME","MEAN_MOTION_DOT":"-0.00000801","DECAY_DATE":null,"EPHEMERIS_TYPE":"0","TLE_LINE2":"2 44934  53.0543 288.4199 0001545  73.5250 286.5909 15.06397468160100","NORAD_CAT_ID":"44934","EPOCH":"2022-12-01T07:23:00.934944","SITE":"AFETR","ARG_OF_PERICENTER":"73.5250","PERIAPSIS":"546.151","REV_AT_EPOCH":"16010","FILE":"3677495","PERIOD":"95.592","OBJECT_NAME":"STARLINK-1071","CLASSIFICATION_TYPE":"U","INCLINATION":"53.0543"},{"FILE":"3677495","REV_AT_EPOCH":"16010","PERIOD":"95.593","OBJECT_NAME":"STARLINK-1079","CLASSIFICATION_TYPE":"U","INCLINATION":"53.0544","NORAD_CAT_ID":"44937","EPOCH":"2022-12-01T06:51:10.747584","TLE_LINE2":"2 44937  53.0544 288.5206 0001586  75.2300 284.8865 15.06385990160103","PERIAPSIS":"546.158","ARG_OF_PERICENTER":"75.2300","SITE":"AFETR","TIME_SYSTEM":"UTC","REF_FRAME":"TEME","DECAY_DATE":null,"EPHEMERIS_TYPE":"0","MEAN_MOTION_DOT":"-0.00001187","BSTAR":"-0.00006081100000","RA_OF_ASC_NODE":"288.5206","APOAPSIS":"548.355","LAUNCH_DATE":"2020-01-07","ECCENTRICITY":"0.00015860","CENTER_NAME":"EARTH","GP_ID":"219263889","MEAN_ANOMALY":"284.8865","MEAN_MOTION":"15.06385990","OBJECT_TYPE":"PAYLOAD","OBJECT_ID":"2020-001Z","COUNTRY_CODE":"US","MEAN_MOTION_DDOT":"0.0000000000000","ELEMENT_SET_NO":"999","TLE_LINE1":"1 44937U 20001Z   22335.28554106 -.00001187  00000-0 -60811-4 0  9995","RCS_SIZE":"LARGE","MEAN_ELEMENT_THEORY":"SGP4","SEMIMAJOR_AXIS":"6925.391"},{"ELEMENT_SET_NO":"999","MEAN_MOTION_DDOT":"0.0000000000000","COUNTRY_CODE":"US","TLE_LINE1":"1 44938U 20001AA  22335.58408892  .00005070  00000-0  35892-3 0  9992","RCS_SIZE":"LARGE","MEAN_ELEMENT_THEORY":"SGP4","SEMIMAJOR_AXIS":"6925.324","LAUNCH_DATE":"2020-01-07","RA_OF_ASC_NODE":"287.1716","APOAPSIS":"548.317","ECCENTRICITY":"0.00016290","CENTER_NAME":"EARTH","GP_ID":"219302185","MEAN_ANOMALY":"302.5766","MEAN_MOTION":"15.06408042","OBJECT_ID":"2020-001AA","OBJECT_TYPE":"PAYLOAD","REF_FRAME":"TEME","TIME_SYSTEM":"UTC","EPHEMERIS_TYPE":"0","DECAY_DATE":null,"MEAN_MOTION_DOT":"0.00005070","BSTAR":"0.00035892000000","CLASSIFICATION_TYPE":"U","PERIOD":"95.592","FILE":"3678231","REV_AT_EPOCH":"16014","OBJECT_NAME":"STARLINK-1082","INCLINATION":"53.0536","NORAD_CAT_ID":"44938","EPOCH":"2022-12-01T14:01:05.282688","TLE_LINE2":"2 44938  53.0536 287.1716 0001629  57.5380 302.5766 15.06408042160141","ARG_OF_PERICENTER":"57.5380","PERIAPSIS":"546.061","SITE":"AFETR"},{"DECAY_DATE":null,"EPHEMERIS_TYPE":"0","MEAN_MOTION_DOT":"0.00002375","REF_FRAME":"TEME","TIME_SYSTEM":"UTC","BSTAR":"0.00017828000000","INCLINATION":"53.0553","CLASSIFICATION_TYPE":"U","REV_AT_EPOCH":"16018","FILE":"3678231","PERIOD":"95.592","OBJECT_NAME":"STARLINK-1083","ARG_OF_PERICENTER":"66.2777","PERIAPSIS":"546.014","SITE":"AFETR","NORAD_CAT_ID":"44939","EPOCH":"2022-12-01T20:33:52.178688","TLE_LINE2":"2 44939  53.0553 285.9509 0001733  66.2777 293.8394 15.06399778160188","TLE_LINE1":"1 44939U 20001AB  22335.85685392  .00002375  00000-0  17828-3 0  9999","RCS_SIZE":"LARGE","ELEMENT_SET_NO":"999","COUNTRY_CODE":"US","MEAN_MOTION_DDOT":"0.0000000000000","SEMIMAJOR_AXIS":"6925.349","MEAN_ELEMENT_THEORY":"SGP4","GP_ID":"219302431","LAUNCH_DATE":"2020-01-07","APOAPSIS":"548.414","RA_OF_ASC_NODE":"285.9509","CENTER_NAME":"EARTH","ECCENTRICITY":"0.00017330","OBJECT_ID":"2020-001AB","OBJECT_TYPE":"PAYLOAD","MEAN_ANOMALY":"293.8394","MEAN_MOTION":"15.06399778"},{"MEAN_MOTION":"15.06400643","MEAN_ANOMALY":"314.6913","OBJECT_ID":"2020-001AC","OBJECT_TYPE":"PAYLOAD","ECCENTRICITY":"0.00018720","CENTER_NAME":"EARTH","LAUNCH_DATE":"2020-01-07","APOAPSIS":"548.508","RA_OF_ASC_NODE":"288.5782","GP_ID":"219263139","MEAN_ELEMENT_THEORY":"SGP4","SEMIMAJOR_AXIS":"6925.347","ELEMENT_SET_NO":"999","COUNTRY_CODE":"US","MEAN_MOTION_DDOT":"0.0000000000000","RCS_SIZE":"LARGE","TLE_LINE1":"1 44940U 20001AC  22335.27078506  .00003009  00000-0  22081-3 0  9992","TLE_LINE2":"2 44940  53.0550 288.5782 0001872  45.4229 314.6913 15.06400643160097","NORAD_CAT_ID":"44940","EPOCH":"2022-12-01T06:29:55.829184","SITE":"AFETR","ARG_OF_PERICENTER":"45.4229","PERIAPSIS":"545.915","CLASSIFICATION_TYPE":"U","PERIOD":"95.592","FILE":"3677495","OBJECT_NAME":"STARLINK-1091","REV_AT_EPOCH":"16009","INCLINATION":"53.0550","BSTAR":"0.00022081000000","REF_FRAME":"TEME","TIME_SYSTEM":"UTC","MEAN_MOTION_DOT":"0.00003009","EPHEMERIS_TYPE":"0","DECAY_DATE":null},{"MEAN_MOTION_DDOT":"0.0000000000000","COUNTRY_CODE":"US","ELEMENT_SET_NO":"999","RCS_SIZE":"LARGE","TLE_LINE1":"1 44941U 20001AD  22335.16020476  .00000059  00000-0  22877-4 0  9990","MEAN_ELEMENT_THEORY":"SGP4","SEMIMAJOR_AXIS":"6925.344","CENTER_NAME":"EARTH","ECCENTRICITY":"0.00017200","RA_OF_ASC_NODE":"289.0783","APOAPSIS":"548.400","LAUNCH_DATE":"2020-01-07","GP_ID":"219264388","MEAN_MOTION":"15.06401505","MEAN_ANOMALY":"299.3738","OBJECT_TYPE":"PAYLOAD","OBJECT_ID":"2020-001AD","TIME_SYSTEM":"UTC","REF_FRAME":"TEME","MEAN_MOTION_DOT":"0.00000059","EPHEMERIS_TYPE":"0","DECAY_DATE":null,"BSTAR":"0.00002287700000","FILE":"3677495","PERIOD":"95.592","OBJECT_NAME":"STARLINK-1094","REV_AT_EPOCH":"16008","CLASSIFICATION_TYPE":"U","INCLINATION":"53.0550","TLE_LINE2":"2 44941  53.0550 289.0783 0001720  60.7422 299.3738 15.06401505160083","EPOCH":"2022-12-01T03:50:41.691264","NORAD_CAT_ID":"44941","SITE":"AFETR","PERIAPSIS":"546.018","ARG_OF_PERICENTER":"60.7422"},{"MEAN_ANOMALY":"288.9304","MEAN_MOTION":"15.12353111","OBJECT_ID":"2020-001AE","OBJECT_TYPE":"PAYLOAD","LAUNCH_DATE":"2020-01-07","APOAPSIS":"531.257","RA_OF_ASC_NODE":"283.3988","ECCENTRICITY":"0.00032270","CENTER_NAME":"EARTH","GP_ID":"219302685","MEAN_ELEMENT_THEORY":"SGP4","SEMIMAJOR_AXIS":"6907.163","ELEMENT_SET_NO":"999","MEAN_MOTION_DDOT":"0.0000000000000","COUNTRY_CODE":"US","TLE_LINE1":"1 44942U 20001AE  22335.57954059  .00019345  00000-0  11169-2 0  9997","RCS_SIZE":"LARGE","NORAD_CAT_ID":"44942","EPOCH":"2022-12-01T13:54:32.306976","TLE_LINE2":"2 44942  53.0546 283.3988 0003227  71.2037 288.9304 15.12353111160209","ARG_OF_PERICENTER":"71.2037","PERIAPSIS":"526.799","SITE":"AFETR","CLASSIFICATION_TYPE":"U","OBJECT_NAME":"STARLINK-1096","FILE":"3678231","PERIOD":"95.216","REV_AT_EPOCH":"16020","INCLINATION":"53.0546","BSTAR":"0.00111690000000","REF_FRAME":"TEME","TIME_SYSTEM":"UTC","DECAY_DATE":null,"EPHEMERIS_TYPE":"0","MEAN_MOTION_DOT":"0.00019345"},{"GP_ID":"219302931","LAUNCH_DATE":"2020-01-07","APOAPSIS":"548.418","RA_OF_ASC_NODE":"287.1644","CENTER_NAME":"EARTH","ECCENTRICITY":"0.00017230","OBJECT_ID":"2020-001AF","OBJECT_TYPE":"PAYLOAD","MEAN_ANOMALY":"303.2243","MEAN_MOTION":"15.06396267","TLE_LINE1":"1 44943U 20001AF  22335.58778007  .00000398  00000-0  45648-4 0  9995","RCS_SIZE":"LARGE","ELEMENT_SET_NO":"999","MEAN_MOTION_DDOT":"0.0000000000000","COUNTRY_CODE":"US","SEMIMAJOR_AXIS":"6925.360","MEAN_ELEMENT_THEORY":"SGP4","INCLINATION":"53.0562","CLASSIFICATION_TYPE":"U","REV_AT_EPOCH":"16014","FILE":"3678231","PERIOD":"95.592","OBJECT_NAME":"STARLINK-1100","PERIAPSIS":"546.032","ARG_OF_PERICENTER":"56.8911","SITE":"AFETR","NORAD_CAT_ID":"44943","EPOCH":"2022-12-01T14:06:24.198048","TLE_LINE2":"2 44943  53.0562 287.1644 0001723  56.8911 303.2243 15.06396267160146","DECAY_DATE":null,"EPHEMERIS_TYPE":"0","MEAN_MOTION_DOT":"0.00000398","REF_FRAME":"TEME","TIME_SYSTEM":"UTC","BSTAR":"0.00004564800000"},{"TLE_LINE1":"1 44944U 20001AG  22335.83475085  .00014587  00000-0  99595-3 0  9998","RCS_SIZE":"LARGE","COUNTRY_CODE":"US","MEAN_MOTION_DDOT":"0.0000000000000","ELEMENT_SET_NO":"999","SEMIMAJOR_AXIS":"6925.327","MEAN_ELEMENT_THEORY":"SGP4","GP_ID":"219301189","APOAPSIS":"548.337","RA_OF_ASC_NODE":"286.0488","LAUNCH_DATE":"2020-01-07","ECCENTRICITY":"0.00016540","CENTER_NAME":"EARTH","OBJECT_TYPE":"PAYLOAD","OBJECT_ID":"2020-001AG","MEAN_MOTION":"15.06407039","MEAN_ANOMALY":"297.9364","DECAY_DATE":null,"EPHEMERIS_TYPE":"0","MEAN_MOTION_DOT":"0.00014587","TIME_SYSTEM":"UTC","REF_FRAME":"TEME","BSTAR":"0.00099595000000","INCLINATION":"53.0539","OBJECT_NAME":"STARLINK-1108","FILE":"3678231","PERIOD":"95.592","REV_AT_EPOCH":"16018","CLASSIFICATION_TYPE":"U","PERIAPSIS":"546.047","ARG_OF_PERICENTER":"62.1793","SITE":"AFETR","EPOCH":"2022-12-01T20:02:02.473440","NORAD_CAT_ID":"44944","TLE_LINE2":"2 44944  53.0539 286.0488 0001654  62.1793 297.9364 15.06407039160183"},{"OBJECT_ID":"2020-001AH","OBJECT_TYPE":"PAYLOAD","MEAN_MOTION":"15.06400109","MEAN_ANOMALY":"294.4326","GP_ID":"219278622","ECCENTRICITY":"0.00017240","CENTER_NAME":"EARTH","LAUNCH_DATE":"2020-01-07","RA_OF_ASC_NODE":"288.0002","APOAPSIS":"548.407","SEMIMAJOR_AXIS":"6925.348","MEAN_ELEMENT_THEORY":"SGP4","RCS_SIZE":"LARGE","TLE_LINE1":"1 44945U 20001AH  22335.39979564  .00001606  00000-0  12672-3 0  9990","ELEMENT_SET_NO":"999","MEAN_MOTION_DDOT":"0.0000000000000","COUNTRY_CODE":"US","SITE":"AFETR","ARG_OF_PERICENTER":"65.6843","PERIAPSIS":"546.019","TLE_LINE2":"2 44945  53.0556 288.0002 0001724  65.6843 294.4326 15.06400109160113","NORAD_CAT_ID":"44945","EPOCH":"2022-12-01T09:35:42.343296","INCLINATION":"53.0556","CLASSIFICATION_TYPE":"U","FILE":"3677856","PERIOD":"95.592","REV_AT_EPOCH":"16011","OBJECT_NAME":"STARLINK-1109","BSTAR":"0.00012672000000","MEAN_MOTION_DOT":"0.00001606","EPHEMERIS_TYPE":"0","DECAY_DATE":null,"REF_FRAME":"TEME","TIME_SYSTEM":"UTC"}];
